[{"OBJECT_NAME":"LILIUM-2","OBJECT_ID":"2025-276P","EPOCH":"2026-03-09T17:57:43.169184","MEAN_MOTION":15.17362397,"ECCENTRICITY":0.0005992,"INCLINATION":97.4225,"RA_OF_ASC_NODE":143.7942,"ARG_OF_PERICENTER":8.9383,"MEAN_ANOMALY":351.1956,"EPHEMERIS_TYPE":0,"CLASSIFICATION_TYPE":"U","NORAD_CAT_ID":66679,"ELEMENT_SET_NO":999,"REV_AT_EPOCH":1531,"BSTAR":0.00024211836,"MEAN_MOTION_DOT":4.769e-5,"MEAN_MOTION_DDOT":0},{"OBJECT_NAME":"NUSAT-52","OBJECT_ID":"2025-276AC","EPOCH":"2026-03-09T18:06:03.254976","MEAN_MOTION":15.18602485,"ECCENTRICITY":0.0003268,"INCLINATION":97.4277,"RA_OF_ASC_NODE":144.0115,"ARG_OF_PERICENTER":28.4269,"MEAN_ANOMALY":331.7143,"EPHEMERIS_TYPE":0,"CLASSIFICATION_TYPE":"U","NORAD_CAT_ID":66692,"ELEMENT_SET_NO":999,"REV_AT_EPOCH":1532,"BSTAR":0.00037392998,"MEAN_MOTION_DOT":7.671e-5,"MEAN_MOTION_DDOT":0}]
