LILIUM-2                
1 66679U 25276P   26068.74841631  .00004769  00000+0  24212-3 0  9991
2 66679  97.4225 143.7942 0005992   8.9383 351.1956 15.17362397 15315
NUSAT-52                
1 66692U 25276AC  26068.75420433  .00007671  00000+0  37393-3 0  9999
2 66692  97.4277 144.0115 0003268  28.4269 331.7143 15.18602485 15326
